start=new Date('2023-05-20T00:00:00.000Z').valueOf();
sats=[{"RA_OF_ASC_NODE":"37.1643","PERIOD":"95.592","COUNTRY_CODE":"US","MEAN_MOTION_DDOT":"0.0000000000000","MEAN_MOTION":"15.06400394","TLE_LINE1":"1 46063U 20055AN  23139.88022234  .00001948  00000-0  14964-3 0  9997","EPHEMERIS_TYPE":"0","GP_ID":"232158535","CENTER_NAME":"EARTH","ARG_OF_PERICENTER":"94.5522","LAUNCH_DATE":"2020-08-07","SEMIMAJOR_AXIS":"6925.347","EPOCH":"2023-05-19T21:07:31.210176","TLE_LINE2":"2 46063  53.0553  37.1643 0001019  94.5522 265.5583 15.06400394154561","FILE":"3912278","ECCENTRICITY":"0.00010190","MEAN_ANOMALY":"265.5583","APOAPSIS":"547.918","REV_AT_EPOCH":"15456","REF_FRAME":"TEME","RCS_SIZE":"LARGE","OBJECT_NAME":"STARLINK-1577","OBJECT_ID":"2020-055AN","MEAN_MOTION_DOT":"0.00001948","PERIAPSIS":"546.507","TIME_SYSTEM":"UTC","SITE":"AFETR","CLASSIFICATION_TYPE":"U","ELEMENT_SET_NO":"999","INCLINATION":"53.0553","NORAD_CAT_ID":"46063","MEAN_ELEMENT_THEORY":"SGP4","DECAY_DATE":null,"OBJECT_TYPE":"PAYLOAD","BSTAR":"0.00014964000000"},{"FILE":"3912278","TLE_LINE2":"2 46064  53.0548  41.1855 0001110  96.1080 264.0035 15.06404244154435","RCS_SIZE":"LARGE","REF_FRAME":"TEME","MEAN_ANOMALY":"264.0035","APOAPSIS":"547.969","REV_AT_EPOCH":"15443","ECCENTRICITY":"0.00011100","MEAN_MOTION":"15.06404244","COUNTRY_CODE":"US","MEAN_MOTION_DDOT":"0.0000000000000","RA_OF_ASC_NODE":"41.1855","PERIOD":"95.592","SEMIMAJOR_AXIS":"6925.336","LAUNCH_DATE":"2020-08-07","EPOCH":"2023-05-18T23:37:44.590368","CENTER_NAME":"EARTH","ARG_OF_PERICENTER":"96.1080","TLE_LINE1":"1 46064U 20055AP  23138.98454387  .00009191  00000-0  63500-3 0  9994","EPHEMERIS_TYPE":"0","GP_ID":"232157313","INCLINATION":"53.0548","ELEMENT_SET_NO":"999","BSTAR":"0.00063500000000","DECAY_DATE":null,"MEAN_ELEMENT_THEORY":"SGP4","OBJECT_TYPE":"PAYLOAD","NORAD_CAT_ID":"46064","PERIAPSIS":"546.432","TIME_SYSTEM":"UTC","MEAN_MOTION_DOT":"0.00009191","OBJECT_ID":"2020-055AP","OBJECT_NAME":"STARLINK-1583","CLASSIFICATION_TYPE":"U","SITE":"AFETR"},{"MEAN_MOTION_DOT":"0.00003059","TIME_SYSTEM":"UTC","PERIAPSIS":"546.303","OBJECT_ID":"2020-055AQ","OBJECT_NAME":"STARLINK-1515","CLASSIFICATION_TYPE":"U","SITE":"AFETR","INCLINATION":"53.0551","ELEMENT_SET_NO":"999","MEAN_ELEMENT_THEORY":"SGP4","DECAY_DATE":null,"OBJECT_TYPE":"PAYLOAD","BSTAR":"0.00022414000000","NORAD_CAT_ID":"46065","MEAN_MOTION_DDOT":"0.0000000000000","COUNTRY_CODE":"US","MEAN_MOTION":"15.06402824","PERIOD":"95.592","RA_OF_ASC_NODE":"17.0434","EPOCH":"2023-05-19T21:45:58.199904","LAUNCH_DATE":"2020-08-07","SEMIMAJOR_AXIS":"6925.340","GP_ID":"232157064","EPHEMERIS_TYPE":"0","TLE_LINE1":"1 46065U 20055AQ  23139.90692361  .00003059  00000-0  22414-3 0  9990","ARG_OF_PERICENTER":"104.2748","CENTER_NAME":"EARTH","FILE":"3912278","TLE_LINE2":"2 46065  53.0551  17.0434 0001302 104.2748 255.8385 15.06402824154832","REF_FRAME":"TEME","RCS_SIZE":"LARGE","ECCENTRICITY":"0.00013020","REV_AT_EPOCH":"15483","MEAN_ANOMALY":"255.8385","APOAPSIS":"548.107"},{"ELEMENT_SET_NO":"999","INCLINATION":"53.0542","NORAD_CAT_ID":"46066","BSTAR":"0.00067843000000","DECAY_DATE":null,"MEAN_ELEMENT_THEORY":"SGP4","OBJECT_TYPE":"PAYLOAD","OBJECT_NAME":"STARLINK-1525","OBJECT_ID":"2020-055AR","PERIAPSIS":"546.081","TIME_SYSTEM":"UTC","MEAN_MOTION_DOT":"0.00009841","SITE":"AFETR","CLASSIFICATION_TYPE":"U","TLE_LINE2":"2 46066  53.0542  17.0239 0001592  83.3473 276.7697 15.06409700154848","FILE":"3912278","APOAPSIS":"548.286","MEAN_ANOMALY":"276.7697","REV_AT_EPOCH":"15484","ECCENTRICITY":"0.00015920","RCS_SIZE":"LARGE","REF_FRAME":"TEME","RA_OF_ASC_NODE":"17.0239","PERIOD":"95.592","MEAN_MOTION":"15.06409700","COUNTRY_CODE":"US","MEAN_MOTION_DDOT":"0.0000000000000","ARG_OF_PERICENTER":"83.3473","CENTER_NAME":"EARTH","TLE_LINE1":"1 46066U 20055AR  23139.91155777  .00009841  00000-0  67843-3 0  9997","GP_ID":"232158313","EPHEMERIS_TYPE":"0","LAUNCH_DATE":"2020-08-07","SEMIMAJOR_AXIS":"6925.319","EPOCH":"2023-05-19T21:52:38.591328"},{"DECAY_DATE":null,"OBJECT_TYPE":"PAYLOAD","MEAN_ELEMENT_THEORY":"SGP4","BSTAR":"0.00018303000000","NORAD_CAT_ID":"46067","INCLINATION":"53.0553","ELEMENT_SET_NO":"999","CLASSIFICATION_TYPE":"U","SITE":"AFETR","MEAN_MOTION_DOT":"0.00002445","TIME_SYSTEM":"UTC","PERIAPSIS":"546.319","OBJECT_NAME":"STARLINK-1529","OBJECT_ID":"2020-055AS","REF_FRAME":"TEME","RCS_SIZE":"LARGE","ECCENTRICITY":"0.00013210","REV_AT_EPOCH":"15485","APOAPSIS":"548.149","MEAN_ANOMALY":"267.5586","FILE":"3912278","TLE_LINE2":"2 46067  53.0553  17.0015 0001321  92.5554 267.5586 15.06393414154855","SEMIMAJOR_AXIS":"6925.369","LAUNCH_DATE":"2020-08-07","EPOCH":"2023-05-19T21:56:35.279808","EPHEMERIS_TYPE":"0","GP_ID":"232158036","TLE_LINE1":"1 46067U 20055AS  23139.91429722  .00002445  00000-0  18303-3 0  9992","CENTER_NAME":"EARTH","ARG_OF_PERICENTER":"92.5554","MEAN_MOTION_DDOT":"0.0000000000000","COUNTRY_CODE":"US","MEAN_MOTION":"15.06393414","PERIOD":"95.593","RA_OF_ASC_NODE":"17.0015"},{"ECCENTRICITY":"0.00010760","APOAPSIS":"547.968","MEAN_ANOMALY":"273.9568","REV_AT_EPOCH":"15485","REF_FRAME":"TEME","RCS_SIZE":"LARGE","TLE_LINE2":"2 46068  53.0540  16.9528 0001076  86.1544 273.9568 15.06396896154852","FILE":"3912278","TLE_LINE1":"1 46068U 20055AT  23139.92534744 -.00003392  00000-0 -20895-3 0  9998","EPHEMERIS_TYPE":"0","GP_ID":"232156814","ARG_OF_PERICENTER":"86.1544","CENTER_NAME":"EARTH","LAUNCH_DATE":"2020-08-07","SEMIMAJOR_AXIS":"6925.358","EPOCH":"2023-05-19T22:12:30.018816","RA_OF_ASC_NODE":"16.9528","PERIOD":"95.592","COUNTRY_CODE":"US","MEAN_MOTION_DDOT":"0.0000000000000","MEAN_MOTION":"15.06396896","NORAD_CAT_ID":"46068","OBJECT_TYPE":"PAYLOAD","DECAY_DATE":null,"MEAN_ELEMENT_THEORY":"SGP4","BSTAR":"-0.00020895000000","ELEMENT_SET_NO":"999","INCLINATION":"53.0540","SITE":"AFETR","CLASSIFICATION_TYPE":"U","OBJECT_ID":"2020-055AT","OBJECT_NAME":"STARLINK-1532","MEAN_MOTION_DOT":"-0.00003392","PERIAPSIS":"546.478","TIME_SYSTEM":"UTC"},{"NORAD_CAT_ID":"46069","BSTAR":"-0.00007699200000","DECAY_DATE":null,"OBJECT_TYPE":"PAYLOAD","MEAN_ELEMENT_THEORY":"SGP4","ELEMENT_SET_NO":"999","INCLINATION":"53.0553","SITE":"AFETR","CLASSIFICATION_TYPE":"U","OBJECT_NAME":"STARLINK-1533","OBJECT_ID":"2020-055AU","TIME_SYSTEM":"UTC","PERIAPSIS":"546.414","MEAN_MOTION_DOT":"-0.00001428","REV_AT_EPOCH":"15486","MEAN_ANOMALY":"273.2234","APOAPSIS":"548.054","ECCENTRICITY":"0.00011840","RCS_SIZE":"LARGE","REF_FRAME":"TEME","TLE_LINE2":"2 46069  53.0553  16.8924 0001184  86.8891 273.2234 15.06393380154867","FILE":"3912278","ARG_OF_PERICENTER":"86.8891","CENTER_NAME":"EARTH","EPHEMERIS_TYPE":"0","GP_ID":"232157563","TLE_LINE1":"1 46069U 20055AU  23139.94104391 -.00001428  00000-0 -76992-4 0  9990","SEMIMAJOR_AXIS":"6925.369","LAUNCH_DATE":"2020-08-07","EPOCH":"2023-05-19T22:35:06.193824","PERIOD":"95.593","RA_OF_ASC_NODE":"16.8924","MEAN_MOTION":"15.06393380","MEAN_MOTION_DDOT":"0.0000000000000","COUNTRY_CODE":"US"},{"TLE_LINE1":"1 46070U 20055AV  23139.88944563  .00001755  00000-0  13668-3 0  9999","GP_ID":"232157815","EPHEMERIS_TYPE":"0","CENTER_NAME":"EARTH","ARG_OF_PERICENTER":"70.6975","LAUNCH_DATE":"2020-08-07","EPOCH":"2023-05-19T21:20:48.102432","SEMIMAJOR_AXIS":"6925.364","RA_OF_ASC_NODE":"17.1263","PERIOD":"95.592","COUNTRY_CODE":"US","MEAN_MOTION_DDOT":"0.0000000000000","MEAN_MOTION":"15.06394801","ECCENTRICITY":"0.00012600","MEAN_ANOMALY":"289.4150","APOAPSIS":"548.102","REV_AT_EPOCH":"15485","REF_FRAME":"TEME","RCS_SIZE":"LARGE","TLE_LINE2":"2 46070  53.0548  17.1263 0001260  70.6975 289.4150 15.06394801154856","FILE":"3912278","SITE":"AFETR","CLASSIFICATION_TYPE":"U","OBJECT_ID":"2020-055AV","OBJECT_NAME":"STARLINK-1536","MEAN_MOTION_DOT":"0.00001755","PERIAPSIS":"546.357","TIME_SYSTEM":"UTC","NORAD_CAT_ID":"46070","MEAN_ELEMENT_THEORY":"SGP4","DECAY_DATE":null,"OBJECT_TYPE":"PAYLOAD","BSTAR":"0.00013668000000","ELEMENT_SET_NO":"999","INCLINATION":"53.0548"},{"RA_OF_ASC_NODE":"17.0355","PERIOD":"95.593","COUNTRY_CODE":"US","MEAN_MOTION_DDOT":"0.0000000000000","MEAN_MOTION":"15.06391366","TLE_LINE1":"1 46071U 20055AW  23139.90786562  .00005751  00000-0  40478-3 0  9995","EPHEMERIS_TYPE":"0","GP_ID":"232158536","ARG_OF_PERICENTER":"146.0504","CENTER_NAME":"EARTH","LAUNCH_DATE":"2020-08-07","SEMIMAJOR_AXIS":"6925.375","EPOCH":"2023-05-19T21:47:19.589568","TLE_LINE2":"2 46071  53.0541  17.0355 0002382 146.0504 214.0637 15.06391366154850","FILE":"3912278","ECCENTRICITY":"0.00023820","MEAN_ANOMALY":"214.0637","APOAPSIS":"548.890","REV_AT_EPOCH":"15485","REF_FRAME":"TEME","RCS_SIZE":"LARGE","OBJECT_ID":"2020-055AW","OBJECT_NAME":"STARLINK-1538","MEAN_MOTION_DOT":"0.00005751","PERIAPSIS":"545.590","TIME_SYSTEM":"UTC","SITE":"AFETR","CLASSIFICATION_TYPE":"U","ELEMENT_SET_NO":"999","INCLINATION":"53.0541","NORAD_CAT_ID":"46071","DECAY_DATE":null,"MEAN_ELEMENT_THEORY":"SGP4","OBJECT_TYPE":"PAYLOAD","BSTAR":"0.00040478000000"},{"OBJECT_ID":"2020-055AX","OBJECT_NAME":"STARLINK-1539","PERIAPSIS":"546.159","TIME_SYSTEM":"UTC","MEAN_MOTION_DOT":"0.00009092","SITE":"AFETR","CLASSIFICATION_TYPE":"U","ELEMENT_SET_NO":"999","INCLINATION":"53.0535","NORAD_CAT_ID":"46072","BSTAR":"0.00062840000000","DECAY_DATE":null,"OBJECT_TYPE":"PAYLOAD","MEAN_ELEMENT_THEORY":"SGP4","RA_OF_ASC_NODE":"16.9300","PERIOD":"95.592","MEAN_MOTION":"15.06404601","COUNTRY_CODE":"US","MEAN_MOTION_DDOT":"0.0000000000000","CENTER_NAME":"EARTH","ARG_OF_PERICENTER":"88.8711","TLE_LINE1":"1 46072U 20055AX  23139.93273140  .00009092  00000-0  62840-3 0  9991","GP_ID":"232157314","EPHEMERIS_TYPE":"0","LAUNCH_DATE":"2020-08-07","EPOCH":"2023-05-19T22:23:07.992960","SEMIMAJOR_AXIS":"6925.334","TLE_LINE2":"2 46072  53.0535  16.9300 0001502  88.8711 271.2450 15.06404601154842","FILE":"3912278","MEAN_ANOMALY":"271.2450","APOAPSIS":"548.240","REV_AT_EPOCH":"15484","ECCENTRICITY":"0.00015020","RCS_SIZE":"LARGE","REF_FRAME":"TEME"}];
